NORAD_CAT_ID,OBJECT_NAME,OBJECT_TYPE,EPOCH,MEAN_MOTION,ECCENTRICITY,INCLINATION,RA_OF_ASC_NODE,ARG_OF_PERICENTER,MEAN_ANOMALY,BSTAR,MEAN_MOTION_DOT,MEAN_MOTION_DDOT,TLE_LINE0,TLE_LINE1,TLE_LINE2,SEMIMAJOR_AXIS,PERIOD,APOGEE,PERIGEE,DECAYED
53410.0,STARLINK-4492,PAYLOAD,2023-08-07 04:46:21,15.08832176,0.0001154,53.2181,38.5952,104.0155,256.0966,1.3205e-05,-7.8e-07,0.0,0 STARLINK-4492,1 53410U 22097Y   23219.19885420 -.00000078  00000-0  13205-4 0  9998,2 53410  53.2181  38.5952 0001154 104.0155 256.0966 15.08832176 55425,6917.904,95.438,540.568,538.971,0.0
53410.0,STARLINK-4492,PAYLOAD,2023-08-07 19:04:48,15.08847121,0.0001087,53.2176,35.9194,114.432,245.6785,0.00032102,4.826e-05,0.0,0 STARLINK-4492,1 53410U 22097Y   23219.79501006  .00004826  00000-0  32102-3 0  9999,2 53410  53.2176  35.9194 0001087 114.4320 245.6785 15.08847121 55511,6917.859,95.437,540.476,538.972,0.0
53410.0,STARLINK-4492,PAYLOAD,2023-08-08 22:06:21,15.08866545,9.59e-05,53.2171,30.8634,98.2047,261.9054,0.00097782,0.0001532,0.0,0 STARLINK-4492,1 53410U 22097Y   23220.92108567  .00015320  00000-0  97782-3 0  9997,2 53410  53.2171  30.8634 0000959  98.2047 261.9054 15.08866545 55680,6917.799,95.436,540.328,539.001,0.0
53410.0,STARLINK-4492,PAYLOAD,2023-08-09 10:49:27,15.08839202,4.18e-05,53.2179,28.4833,145.6298,214.4721,0.00013276,1.826e-05,0.0,0 STARLINK-4492,1 53410U 22097Y   23221.45100715  .00001826  00000-0  13276-3 0  9995,2 53410  53.2179  28.4833 0000418 145.6298 214.4721 15.08839202 55760,6917.883,95.438,540.037,539.459,0.0
53410.0,STARLINK-4492,PAYLOAD,2023-08-10 17:01:46,15.08844546,8.57e-05,53.217,22.8363,78.8124,281.2964,0.00021142,3.079e-05,0.0,0 STARLINK-4492,1 53410U 22097Y   23222.70956932  .00003079  00000-0  21142-3 0  9997,2 53410  53.2170  22.8363 0000857  78.8124 281.2964 15.08844546 55958,6917.866,95.437,540.324,539.139,0.0
53410.0,STARLINK-4492,PAYLOAD,2023-08-11 16:52:33,15.08843715,0.0001001,53.2172,18.3759,75.7438,284.3666,0.00016444,2.331e-05,0.0,0 STARLINK-4492,1 53410U 22097Y   23223.70316939  .00002331  00000-0  16444-3 0  9994,2 53410  53.2172  18.3759 0001001  75.7438 284.3666 15.08843715 56103,6917.869,95.437,540.427,539.042,0.0
53410.0,STARLINK-4492,PAYLOAD,2023-08-12 10:21:48,15.08839705,8.4e-05,53.2172,15.1051,81.3041,278.8047,9.4492e-05,1.216e-05,0.0,0 STARLINK-4492,1 53410U 22097Y   23224.43181145  .00001216  00000-0  94492-4 0  9995,2 53410  53.2172  15.1051 0000840  81.3041 278.8047 15.08839705 56213,6917.881,95.438,540.327,539.165,0.0
53410.0,STARLINK-4492,PAYLOAD,2023-08-13 16:34:08,15.08842368,8.53e-05,53.2171,9.4545,84.6158,275.4932,0.00015371,2.16e-05,0.0,0 STARLINK-4492,1 53410U 22097Y   23225.69037111  .00002160  00000-0  15371-3 0  9994,2 53410  53.2171   9.4545 0000853  84.6158 275.4932 15.08842368 56401,6917.873,95.437,540.328,539.148,0.0
53410.0,STARLINK-4492,PAYLOAD,2023-08-14 10:03:22,15.08836876,9.86e-05,53.2175,6.1835,90.787,269.3236,0.00011154,1.488e-05,0.0,0 STARLINK-4492,1 53410U 22097Y   23226.41901462  .00001488  00000-0  11154-3 0  9991,2 53410  53.2175   6.1835 0000986  90.7870 269.3236 15.08836876 56515,6917.89,95.438,540.437,539.073,0.0
53410.0,STARLINK-4492,PAYLOAD,2023-08-14 18:00:18,15.0884689,9.83e-05,53.2179,4.6977,90.2101,269.9004,0.00018905,2.723e-05,0.0,0 STARLINK-4492,1 53410U 22097Y   23226.75020957  .00002723  00000-0  18905-3 0  9993,2 53410  53.2179   4.6977 0000983  90.2101 269.9004 15.08846890 56569,6917.859,95.437,540.404,539.044,0.0
53410.0,STARLINK-4492,PAYLOAD,2023-08-15 17:51:05,15.08840753,0.0001119,53.2173,0.2368,88.99,271.1221,5.5256e-05,5.92e-06,0.0,0 STARLINK-4492,1 53410U 22097Y   23227.74381274  .00000592  00000-0  55256-4 0  9998,2 53410  53.2173   0.2368 0001119  88.9900 271.1221 15.08840753 56717,6917.878,95.438,540.517,538.969,0.0
53410.0,STARLINK-4492,PAYLOAD,2023-08-16 09:44:57,15.08834773,0.0001064,53.2185,357.2629,86.279,273.8324,5.4976e-05,5.87e-06,0.0,0 STARLINK-4492,1 53410U 22097Y   23228.40622077  .00000587  00000-0  54976-4 0  9993,2 53410  53.2185 357.2629 0001064  86.2790 273.8324 15.08834773 56811,6917.896,95.438,540.497,539.025,0.0
53410.0,STARLINK-4492,PAYLOAD,2023-08-16 17:41:52,15.08845565,0.0001025,53.2184,355.7765,79.3301,280.7806,7.691e-05,9.37e-06,0.0,0 STARLINK-4492,1 53410U 22097Y   23228.73741372  .00000937  00000-0  76910-4 0  9990,2 53410  53.2184 355.7765 0001025  79.3301 280.7806 15.08845565 56860,6917.863,95.437,540.437,539.019,0.0
53410.0,STARLINK-4492,PAYLOAD,2023-08-17 08:00:21,15.08837766,0.0001112,53.2154,353.0977,80.5113,279.6004,9.2199e-05,1.18e-05,0.0,0 STARLINK-4492,1 53410U 22097Y   23229.33357804  .00001180  00000-0  92199-4 0  9998,2 53410  53.2154 353.0977 0001112  80.5113 279.6004 15.08837766 56956,6917.887,95.438,540.521,538.983,0.0
53410.0,STARLINK-4492,PAYLOAD,2023-08-18 01:29:36,15.08828062,3.52e-05,53.2181,349.8291,74.6052,285.4979,1.1589e-05,-1.03e-06,0.0,0 STARLINK-4492,1 53410U 22097Y   23230.06222493 -.00000103  00000-0  11589-4 0  9994,2 53410  53.2181 349.8291 0000352  74.6052 285.4979 15.08828062 57067,6917.917,95.438,540.025,539.538,0.0
53410.0,STARLINK-4492,PAYLOAD,2023-08-18 18:58:49,15.08846446,8.61e-05,53.216,346.5569,55.8581,304.2493,8.0777e-05,9.98e-06,0.0,0 STARLINK-4492,1 53410U 22097Y   23230.79085581  .00000998  00000-0  80777-4 0  9995,2 53410  53.2160 346.5569 0000861  55.8581 304.2493 15.08846446 57178,6917.861,95.437,540.321,539.13,0.0
53410.0,STARLINK-4492,PAYLOAD,2023-08-19 01:20:22,15.08839552,0.0001457,53.2152,345.3702,71.9689,288.1462,8.9945e-05,1.144e-05,0.0,0 STARLINK-4492,1 53410U 22097Y   23231.05582172  .00001144  00000-0  89945-4 0  9993,2 53410  53.2152 345.3702 0001457  71.9689 288.1462 15.08839552 57216,6917.882,95.438,540.755,538.739,0.0
53410.0,STARLINK-4492,PAYLOAD,2023-08-19 15:38:50,15.08851573,9.47e-05,53.2166,342.6912,82.912,277.1979,0.00018315,2.629e-05,0.0,0 STARLINK-4492,1 53410U 22097Y   23231.65197352  .00002629  00000-0  18315-3 0  9992,2 53410  53.2166 342.6912 0000947  82.9120 277.1979 15.08851573 57307,6917.845,95.437,540.365,539.055,0.0
53410.0,STARLINK-4492,PAYLOAD,2023-08-20 12:18:51,15.08840278,0.0001157,53.2167,338.8279,78.4522,281.66,9.1876e-05,1.175e-05,0.0,0 STARLINK-4492,1 53410U 22097Y   23232.51310069  .00001175  00000-0  91876-4 0  9999,2 53410  53.2167 338.8279 0001157  78.4522 281.6600 15.08840278 57436,6917.88,95.438,540.545,538.944,0.0
53410.0,STARLINK-4492,PAYLOAD,2023-08-21 13:45:01,15.08848623,0.0001104,53.2177,334.0695,94.6683,265.4435,0.00010212,1.338e-05,0.0,0 STARLINK-4492,1 53410U 22097Y   23233.57293469  .00001338  00000-0  10212-3 0  9995,2 53410  53.2177 334.0695 0001104  94.6683 265.4435 15.08848623 57592,6917.854,95.437,540.483,538.955,0.0
53410.0,STARLINK-4492,PAYLOAD,2023-08-22 12:00:26,15.08835047,0.0001205,53.218,329.9058,101.412,258.7007,-7.7638e-06,-4.11e-06,0.0,0 STARLINK-4492,1 53410U 22097Y   23234.50030244 -.00000411  00000-0 -77638-5 0  9999,2 53410  53.2180 329.9058 0001205 101.4120 258.7007 15.08835047 57739,6917.896,95.438,540.594,538.927,0.0
53410.0,STARLINK-4492,PAYLOAD,2023-08-23 11:51:12,15.08844498,0.0001198,53.2169,325.4448,100.3663,259.7464,9.1556e-05,1.17e-05,0.0,0 STARLINK-4492,1 53410U 22097Y   23235.49389823  .00001170  00000-0  91556-4 0  9993,2 53410  53.2169 325.4448 0001198 100.3663 259.7464 15.08844498 57885,6917.867,95.437,540.56,538.903,0.0
53410.0,STARLINK-4492,PAYLOAD,2023-08-24 11:42:00,15.08839426,0.000124,53.2172,320.9852,89.9088,270.2046,0.00013085,1.795e-05,0.0,0 STARLINK-4492,1 53410U 22097Y   23236.48750278  .00001795  00000-0  13085-3 0  9992,2 53410  53.2172 320.9852 0001240  89.9088 270.2046 15.08839426 58520,6917.882,95.438,540.605,538.889,0.0
53410.0,STARLINK-4492,PAYLOAD,2023-08-25 13:08:10,15.08847076,0.0001199,53.2162,316.228,84.009,276.1039,0.0001508,2.113e-05,0.0,0 STARLINK-4492,1 53410U 22097Y   23237.54733942  .00002113  00000-0  15080-3 0  9991,2 53410  53.2162 316.2280 0001199  84.0090 276.1039 15.08847076 58688,6917.859,95.437,540.553,538.894,0.0
53410.0,STARLINK-4492,PAYLOAD,2023-08-25 14:43:33,15.0884964,0.0001187,53.2163,315.9308,81.2303,278.8824,0.00023523,3.459e-05,0.0,0 STARLINK-4492,1 53410U 22097Y   23237.61357871  .00003459  00000-0  23523-3 0  9997,2 53410  53.2163 315.9308 0001187  81.2303 278.8824 15.08849640 58207,6917.851,95.437,540.537,538.895,0.0
53410.0,STARLINK-4492,PAYLOAD,2023-08-26 09:48:11,15.08838279,0.0001371,53.2165,312.3628,77.4521,282.6625,0.00013798,1.909e-05,0.0,0 STARLINK-4492,1 53410U 22097Y   23238.40846610  .00001909  00000-0  13798-3 0  9990,2 53410  53.2165 312.3628 0001371  77.4521 282.6625 15.08838279 58320,6917.886,95.438,540.699,538.802,0.0
53410.0,STARLINK-4492,PAYLOAD,2023-08-26 12:58:57,15.08839887,0.0001611,53.2163,311.7678,62.9273,297.1883,0.00015308,2.149e-05,0.0,0 STARLINK-4492,1 53410U 22097Y   23238.54094695  .00002149  00000-0  15308-3 0  9999,2 53410  53.2163 311.7678 0001611  62.9273 297.1883 15.08839887 58835,6917.881,95.438,540.86,538.631,0.0
53410.0,STARLINK-4492,PAYLOAD,2023-08-26 14:34:20,15.08842132,0.0001544,53.2162,311.4702,64.2618,295.8533,0.00018342,2.633e-05,0.0,0 STARLINK-4492,1 53410U 22097Y   23238.60718583  .00002633  00000-0  18342-3 0  9994,2 53410  53.2162 311.4702 0001544  64.2618 295.8533 15.08842132 58847,6917.874,95.437,540.807,538.671,0.0
53410.0,STARLINK-4492,PAYLOAD,2023-08-27 09:38:58,15.08845288,0.0001209,53.2159,307.9003,85.219,274.894,0.00014356,1.998e-05,0.0,0 STARLINK-4492,1 53410U 22097Y   23239.40206355  .00001998  00000-0  14356-3 0  9996,2 53410  53.2159 307.9003 0001209  85.2190 274.8940 15.08845288 58960,6917.864,95.437,540.566,538.893,0.0
53410.0,STARLINK-4492,PAYLOAD,2023-08-27 12:49:44,15.0884789,0.0001283,53.2167,307.3057,83.328,276.7858,0.00015919,2.247e-05,0.0,0 STARLINK-4492,1 53410U 22097Y   23239.53454230  .00002247  00000-0  15919-3 0  9991,2 53410  53.2167 307.3057 0001283  83.3280 276.7858 15.08847890 58491,6917.856,95.437,540.609,538.834,0.0
